[{"OBJECT_NAME":"STARLINK-35289","OBJECT_ID":"2025-218U","EPOCH":"2026-03-09T13:44:46.798368","MEAN_MOTION":15.05648513,"ECCENTRICITY":0.0002126,"INCLINATION":97.603,"RA_OF_ASC_NODE":292.8624,"ARG_OF_PERICENTER":89.5694,"MEAN_ANOMALY":270.5777,"EPHEMERIS_TYPE":0,"CLASSIFICATION_TYPE":"U","NORAD_CAT_ID":65809,"ELEMENT_SET_NO":999,"REV_AT_EPOCH":2495,"BSTAR":0.00029108,"MEAN_MOTION_DOT":4.142e-5,"MEAN_MOTION_DDOT":0},{"OBJECT_NAME":"CZ-6A DEB","OBJECT_ID":"2022-151YC","EPOCH":"2026-03-09T04:14:53.282976","MEAN_MOTION":14.99280007,"ECCENTRICITY":0.00518471,"INCLINATION":98.6024,"RA_OF_ASC_NODE":155.4435,"ARG_OF_PERICENTER":132.3409,"MEAN_ANOMALY":228.2221,"EPHEMERIS_TYPE":0,"CLASSIFICATION_TYPE":"U","NORAD_CAT_ID":55530,"ELEMENT_SET_NO":999,"REV_AT_EPOCH":17201,"BSTAR":0.0041206483,"MEAN_MOTION_DOT":0.00051995,"MEAN_MOTION_DDOT":0}]
